OBJECT_NAME,OBJECT_ID,EPOCH,MEAN_MOTION,ECCENTRICITY,INCLINATION,RA_OF_ASC_NODE,ARG_OF_PERICENTER,MEAN_ANOMALY,EPHEMERIS_TYPE,CLASSIFICATION_TYPE,NORAD_CAT_ID,ELEMENT_SET_NO,REV_AT_EPOCH,BSTAR,MEAN_MOTION_DOT,MEAN_MOTION_DDOT
STARLINK-32580,2024-217U,2026-07-11T16:31:34.314240,15.30208538,.00008615,53.1604,325.3281,95.7547,264.3552,0,U,62075,999,9258,.37486536E-3,.10762E-3,0
STARLINK-32617,2024-217V,2026-07-11T16:04:56.811072,15.34395546,.00013758,53.1605,324.5070,37.3709,322.7389,0,U,62076,999,9259,.57916168E-3,.19239E-3,0
STARLINK-11384 [DTC],2024-220A,2026-07-11T13:54:32.474592,15.70968434,.00037005,43.0019,16.6775,247.1537,112.8940,0,U,62088,999,9453,.81850475E-3,.106533E-2,0
STARLINK-11379 [DTC],2024-220B,2026-07-10T22:31:19.214112,15.70874772,.00025287,43.0005,20.4772,294.1693,65.8910,0,U,62089,999,9433,.87626631E-3,.113713E-2,0
STARLINK-11387 [DTC],2024-220C,2026-07-11T12:07:42.140640,15.70880203,.00016577,43.0000,16.9793,250.1678,109.9011,0,U,62090,999,9452,.65309004E-3,.8435E-3,0
STARLINK-11389 [DTC],2024-220D,2026-07-11T15:03:10.906848,15.70856255,.00016567,42.9986,16.1684,218.7514,141.3235,0,U,62091,999,9444,.77132548E-4,.9467E-4,0
STARLINK-11388 [DTC],2024-220E,2026-07-10T22:08:22.850880,15.70867137,.00017092,42.9998,20.3436,274.1284,85.9388,0,U,62092,999,9433,.11796431E-2,.153927E-2,0
STARLINK-11345 [DTC],2024-220F,2026-07-10T23:32:17.750400,15.70928756,.00014606,42.9996,19.9176,268.6592,91.4109,0,U,62093,999,9434,.87831741E-3,.114238E-2,0
STARLINK-11381 [DTC],2024-220G,2026-07-11T13:08:40.672608,15.70863881,.00015122,42.9998,16.4243,256.3222,103.7477,0,U,62094,999,9443,.91049724E-3,.118174E-2,0
STARLINK-11369 [DTC],2024-220H,2026-07-11T13:01:02.572896,15.70861998,.00024644,42.9987,16.3897,336.5933,23.4822,0,U,62095,999,9453,.83846221E-3,.108662E-2,0
STARLINK-11303 [DTC],2024-220J,2026-07-11T12:53:23.393184,15.70864579,.00016784,42.9999,16.3426,272.9466,87.1209,0,U,62096,999,9453,.86864025E-3,.112649E-2,0
STARLINK-11367 [DTC],2024-220K,2026-07-11T12:45:44.391456,15.70875433,.00020184,43.0006,16.2991,261.0564,99.0076,0,U,62097,999,9453,.79965608E-3,.103603E-2,0
STARLINK-11386 [DTC],2024-220L,2026-07-11T12:38:06.061056,15.70861154,.00017689,42.9998,16.2565,278.7998,81.2669,0,U,62098,999,9443,.93423576E-3,.1213E-2,0
STARLINK-11380 [DTC],2024-220M,2026-07-11T12:30:27.474048,15.70855247,.00019005,43.0002,16.2153,282.7876,77.2779,0,U,62099,999,9443,.84797026E-3,.109879E-2,0
STARLINK-33566,2024-220N,2026-07-11T10:03:02.809728,15.27603536,.00018633,43.0011,212.0784,275.2097,84.8542,0,U,62100,999,9228,.42280971E-3,.11399E-3,0
STARLINK-33545,2024-220P,2026-07-11T12:41:02.040576,15.27583449,.00014076,42.9997,225.9163,273.9568,86.1123,0,U,62101,999,9196,.28818194E-3,.7677E-4,0
STARLINK-33562,2024-220Q,2026-07-11T03:32:45.215520,15.27575562,.00010105,42.9996,228.2169,243.2560,116.8188,0,U,62102,999,9190,.33036106E-3,.8838E-4,0
STARLINK-33554,2024-220R,2026-07-11T11:01:19.603488,15.27586740,.00017918,43.0006,226.2574,267.5348,92.5299,0,U,62103,999,9188,.45300014E-3,.12227E-3,0
STARLINK-33555,2024-220S,2026-07-11T11:49:26.374368,15.27581154,.00021508,43.0021,226.5101,283.0259,77.0353,0,U,62104,999,9209,.28219612E-3,.7511E-4,0
STARLINK-33559,2024-220V,2026-07-11T03:53:06.033696,15.27583090,.00013115,42.9993,228.3240,254.6679,105.4028,0,U,62107,999,9207,.28635245E-3,.7627E-4,0
STARLINK-33553,2024-220W,2026-07-11T11:32:47.355360,15.27559533,.00018361,43.0027,226.4227,259.2761,100.7884,0,U,62108,999,9212,.41896369E-3,.11277E-3,0
STARLINK-33556,2024-220X,2026-07-11T11:12:26.430048,15.27582946,.0001003,43.0001,226.3134,238.8791,121.1963,0,U,62109,999,9214,.43642705E-3,.11768E-3,0
STARLINK-33551,2024-220Y,2026-07-11T02:13:23.710656,15.27595048,.00004056,42.9982,228.6660,235.7933,124.2880,0,U,62110,999,9206,.41933376E-3,.113E-3,0
STARLINK-32311,2024-222A,2026-07-11T08:17:09.557664,15.27585336,.0002121,42.9991,142.8591,242.6010,117.4626,0,U,62114,999,9199,.28486793E-3,.7586E-4,0
STARLINK-32470,2024-222B,2026-07-11T06:53:23.616096,15.27595214,.00013774,43.0014,157.9993,37.3041,322.7906,0,U,62115,999,9180,.5356096E-3,.14512E-3,0
STARLINK-32502,2024-222C,2026-07-11T05:50:42.307872,15.27592705,.00012799,42.9996,158.5288,269.2909,90.7796,0,U,62116,999,9170,.59844438E-3,.16248E-3,0
STARLINK-32521,2024-222D,2026-07-10T09:06:57.609216,15.27593991,.00017817,43.0009,159.6526,277.4290,82.6360,0,U,62117,999,9155,.40035513E-3,.10776E-3,0
STARLINK-32549,2024-222E,2026-07-10T08:34:50.303424,15.27610674,.00008746,42.9990,163.0590,275.4675,84.6077,0,U,62118,999,9157,.37854549E-3,.10179E-3,0
STARLINK-32535,2024-222F,2026-07-11T06:02:29.066784,15.27591103,.00009287,42.9990,155.1297,311.8512,48.2260,0,U,62119,999,9169,.49053084E-3,.13265E-3,0
STARLINK-32548,2024-222G,2026-07-10T06:38:41.586144,15.27599005,.00014279,42.9986,164.1706,273.7296,86.3392,0,U,62120,999,9150,.28985431E-3,.7727E-4,0
STARLINK-32525,2024-222H,2026-07-11T06:42:16.424064,15.27591196,.00020578,43.0023,157.9350,258.0950,101.9671,0,U,62121,999,9166,.42708143E-3,.11513E-3,0
STARLINK-32628,2024-222J,2026-07-11T07:08:11.097024,15.27586931,.00019303,43.0034,158.0765,283.8913,76.1724,0,U,62122,999,9182,.37490549E-3,.10071E-3,0
STARLINK-32626,2024-222K,2026-07-11T09:10:06.808800,15.27591802,.00021388,42.9987,157.8458,19.2861,340.8071,0,U,62123,999,9166,.51205933E-3,.1386E-3,0
STARLINK-32608,2024-222L,2026-07-11T08:33:04.800384,15.27592382,.00020752,42.9998,157.6571,249.4258,110.6371,0,U,62124,999,9165,.36013659E-3,.9665E-4,0
STARLINK-32488,2024-222M,2026-07-10T09:52:33.536064,15.27599682,.00007043,42.9973,163.4593,9.8166,350.2699,0,U,62125,999,9141,.25918767E-3,.6881E-4,0
STARLINK-32490,2024-222N,2026-07-11T06:36:43.364160,15.27607738,.00008411,42.9980,157.9069,262.6442,97.4314,0,U,62126,999,9165,.36266976E-3,.974E-4,0
STARLINK-32557,2024-222P,2026-07-11T05:30:32.131584,15.27579207,.00009107,43.0000,147.8887,263.1320,96.9428,0,U,62127,999,9181,.39946212E-3,.10746E-3,0
STARLINK-32568,2024-222Q,2026-07-11T09:04:32.293920,15.27586554,.00019161,43.0002,157.8143,266.3821,93.6811,0,U,62128,999,9140,.33446874E-3,.8955E-4,0
STARLINK-32462,2024-222R,2026-07-11T07:27:22.952448,15.27582099,.00022656,42.9998,154.7107,251.7204,108.3401,0,U,62129,999,9169,.31933957E-3,.8536E-4,0
STARLINK-32463,2024-222S,2026-07-11T06:47:50.400672,15.27587362,.00008656,43.0014,157.9653,20.8118,339.2769,0,U,62130,999,9165,.33006272E-3,.8833E-4,0
STARLINK-32550,2024-222T,2026-07-11T09:13:48.341856,15.27594193,.00008221,42.9980,157.8633,280.1342,79.9417,0,U,62131,999,9171,.31482624E-3,.8415E-4,0
STARLINK-32507,2024-222U,2026-07-11T06:27:27.646272,15.27590789,.00036524,42.9956,157.8555,241.5870,118.4614,0,U,62132,999,9150,.39207296E-3,.10547E-3,0
STARLINK-32245,2024-222V,2026-07-11T08:53:27.084768,15.27578343,.00005441,42.9989,157.7573,283.5925,76.4866,0,U,62133,999,9182,.20796705E-3,.5465E-4,0
STARLINK-32546,2024-222W,2026-07-10T09:34:44.603040,15.27581469,.00018474,42.9985,159.9088,253.1894,106.8755,0,U,62134,999,9144,.19320495E-3,.5058E-4,0
STARLINK-32545,2024-222X,2026-07-11T07:56:19.823136,15.27557325,.00005928,42.9953,158.3180,307.4635,52.6162,0,U,62135,999,9170,.52398644E-3,.14175E-3,0
STARLINK-32554,2024-222Y,2026-07-11T07:04:29.010144,15.27593495,.0001983,43.0033,158.0542,287.4735,72.5900,0,U,62136,999,9170,.57231202E-3,.15526E-3,0
STARLINK-32570,2024-222Z,2026-07-11T07:13:43.505472,15.27577969,.0002522,43.0022,158.0974,277.1696,82.8869,0,U,62137,999,9180,.5585505E-3,.15139E-3,0
STARLINK-32529,2024-224A,2026-07-11T09:00:40.260672,15.27581209,.00015125,42.9990,179.8322,271.8674,88.2004,0,U,62139,999,9133,.19140998E-3,.5009E-4,0
STARLINK-32464,2024-224B,2026-07-11T01:21:00.593568,15.27572414,.00037182,42.9948,181.7106,300.5354,59.5131,0,U,62140,999,9128,.18285867E-3,.4772E-4,0
STARLINK-32482,2024-224C,2026-07-11T08:16:15.568896,15.27577184,.00013585,43.0008,179.5786,272.1429,87.9267,0,U,62141,999,9123,.28017746E-3,.7455E-4,0
STARLINK-32454,2024-224D,2026-07-11T09:43:40.550880,15.27591209,.00016882,43.0004,186.9525,279.3237,80.7424,0,U,62142,999,9131,.35191821E-3,.9438E-4,0
STARLINK-32485,2024-224E,2026-07-11T08:06:18.318528,15.27580882,.00014923,42.9980,182.9817,274.7780,85.2902,0,U,62143,999,9092,.27239855E-3,.7241E-4,0
STARLINK-32388,2024-224F,2026-07-11T09:38:07.571328,15.27591370,.00014668,42.9996,186.9234,276.4539,83.6146,0,U,62144,999,9131,.43438518E-3,.11714E-3,0
STARLINK-32374,2024-224G,2026-07-11T10:21:51.938496,15.27591230,.00017121,43.0002,179.3723,277.8942,82.1715,0,U,62145,999,9140,.36200062E-3,.9716E-4,0
STARLINK-32384,2024-224H,2026-07-11T08:49:34.718880,15.27594746,.00015109,43.0016,179.7531,354.8835,5.2001,0,U,62146,999,9139,.37394254E-3,.10047E-3,0
STARLINK-32295,2024-224J,2026-07-10T23:39:25.772544,15.27599665,.00017969,43.0004,182.0433,279.1266,80.9382,0,U,62147,999,9122,.30798735E-3,.8228E-4,0
STARLINK-32479,2024-224K,2026-07-11T10:08:54.794688,15.27588340,.00016558,43.0017,179.3097,270.1544,89.9118,0,U,62148,999,9134,.27649385E-3,.7356E-4,0
STARLINK-32468,2024-224L,2026-07-11T00:42:08.975520,15.27572922,.00022516,43.0020,181.5140,289.9047,70.1562,0,U,62149,999,9118,.36860292E-3,.9893E-4,0
STARLINK-32629,2024-224M,2026-07-11T07:54:02.759040,15.27587625,.00028411,42.9977,179.4570,245.5219,114.5337,0,U,62150,999,9139,.30689469E-3,.8195E-4,0
STARLINK-32644,2024-224N,2026-07-11T10:36:40.483008,15.27591328,.00006725,42.9937,179.4484,289.1922,70.8857,0,U,62151,999,9140,.3968119E-3,.10677E-3,0
STARLINK-32623,2024-224P,2026-07-11T00:30:19.757664,15.27584258,.00017575,43.0001,184.9067,284.1176,75.9480,0,U,62152,999,9124,.59554134E-3,.16164E-3,0
STARLINK-32639,2024-224Q,2026-07-11T07:24:39.182112,15.27596082,.00020921,43.0015,180.1622,253.2302,106.8320,0,U,62153,999,9122,.43562207E-3,.1175E-3,0
STARLINK-32625,2024-224R,2026-07-11T04:27:27.196416,15.27591943,.00051021,42.9970,180.9591,308.5884,51.4510,0,U,62154,999,9125,.32395636E-3,.8668E-4,0
